start=new Date('2022-08-27T00:00:00.000Z').valueOf();
sats=[{"MEAN_ELEMENT_THEORY":"SGP4","MEAN_ANOMALY":"287.1548","DECAY_DATE":null,"FILE":"3548620","SITE":"AFETR","ELEMENT_SET_NO":"999","PERIOD":"95.437","TIME_SYSTEM":"UTC","EPOCH":"2022-08-26T22:00:00.999936","CLASSIFICATION_TYPE":"U","MEAN_MOTION":"15.08845967","REF_FRAME":"TEME","OBJECT_TYPE":"PAYLOAD","ECCENTRICITY":"0.00020420","APOAPSIS":"541.140","CENTER_NAME":"EARTH","PERIAPSIS":"538.315","REV_AT_EPOCH":"130","OBJECT_ID":"2022-049P","RCS_SIZE":"LARGE","TLE_LINE1":"1 52464U 22049P   22238.91667824  .00000014  00000-0  19004-4 0  9991","COUNTRY_CODE":"US","ARG_OF_PERICENTER":"64.0246","LAUNCH_DATE":"2022-05-06","BSTAR":"0.00001900400000","NORAD_CAT_ID":"52464","SEMIMAJOR_AXIS":"6917.862","MEAN_MOTION_DOT":"0.00000014","INCLINATION":"53.2147","OBJECT_NAME":"STARLINK-3904","TLE_LINE2":"2 52464  53.2147  93.6261 0002042  64.0246 287.1548 15.08845967  1304","GP_ID":"211080848","EPHEMERIS_TYPE":"0","RA_OF_ASC_NODE":"93.6261","MEAN_MOTION_DDOT":"0.0000000000000"},{"OBJECT_TYPE":"PAYLOAD","ECCENTRICITY":"0.00021190","APOAPSIS":"541.214","CENTER_NAME":"EARTH","EPOCH":"2022-08-26T22:00:00.999936","CLASSIFICATION_TYPE":"U","REF_FRAME":"TEME","MEAN_MOTION":"15.08839267","ELEMENT_SET_NO":"999","PERIOD":"95.438","TIME_SYSTEM":"UTC","MEAN_ELEMENT_THEORY":"SGP4","MEAN_ANOMALY":"330.3245","SITE":"AFETR","FILE":"3548620","DECAY_DATE":null,"TLE_LINE2":"2 52465  53.2126  83.6238 0002119  55.8749 330.3245 15.08839267  1307","GP_ID":"211080569","EPHEMERIS_TYPE":"0","RA_OF_ASC_NODE":"83.6238","MEAN_MOTION_DDOT":"0.0000000000000","NORAD_CAT_ID":"52465","SEMIMAJOR_AXIS":"6917.883","MEAN_MOTION_DOT":"0.00010488","OBJECT_NAME":"STARLINK-3863","INCLINATION":"53.2126","TLE_LINE1":"1 52465U 22049Q   22238.91667824  .00010488  00000-0  67607-3 0  9999","COUNTRY_CODE":"US","ARG_OF_PERICENTER":"55.8749","LAUNCH_DATE":"2022-05-06","BSTAR":"0.00067607000000","OBJECT_ID":"2022-049Q","PERIAPSIS":"538.282","REV_AT_EPOCH":"130","RCS_SIZE":"LARGE"},{"REF_FRAME":"TEME","MEAN_MOTION":"15.08828710","CLASSIFICATION_TYPE":"U","EPOCH":"2022-08-26T22:00:00.999936","CENTER_NAME":"EARTH","APOAPSIS":"541.000","ECCENTRICITY":"0.00017640","OBJECT_TYPE":"PAYLOAD","FILE":"3548620","DECAY_DATE":null,"SITE":"AFETR","MEAN_ANOMALY":"354.8513","MEAN_ELEMENT_THEORY":"SGP4","TIME_SYSTEM":"UTC","PERIOD":"95.438","ELEMENT_SET_NO":"999","OBJECT_NAME":"STARLINK-3840","INCLINATION":"53.2141","MEAN_MOTION_DOT":"-0.00004445","SEMIMAJOR_AXIS":"6917.915","NORAD_CAT_ID":"52466","MEAN_MOTION_DDOT":"0.0000000000000","RA_OF_ASC_NODE":"93.6219","EPHEMERIS_TYPE":"0","GP_ID":"211080286","TLE_LINE2":"2 52466  53.2141  93.6219 0001764  56.2626 354.8513 15.08828710  1309","RCS_SIZE":"LARGE","PERIAPSIS":"538.560","OBJECT_ID":"2022-049R","REV_AT_EPOCH":"130","BSTAR":"-0.00026143000000","LAUNCH_DATE":"2022-05-06","ARG_OF_PERICENTER":"56.2626","COUNTRY_CODE":"US","TLE_LINE1":"1 52466U 22049R   22238.91667824 -.00004445  00000-0 -26143-3 0  9998"},{"RCS_SIZE":"LARGE","PERIAPSIS":"538.347","REV_AT_EPOCH":"130","OBJECT_ID":"2022-049S","LAUNCH_DATE":"2022-05-06","BSTAR":"-0.00023681000000","ARG_OF_PERICENTER":"64.3852","COUNTRY_CODE":"US","TLE_LINE1":"1 52467U 22049S   22238.91667824 -.00004056  00000-0 -23681-3 0  9991","OBJECT_NAME":"STARLINK-3873","INCLINATION":"53.2152","SEMIMAJOR_AXIS":"6917.853","MEAN_MOTION_DOT":"-0.00004056","NORAD_CAT_ID":"52467","RA_OF_ASC_NODE":"93.6249","EPHEMERIS_TYPE":"0","MEAN_MOTION_DDOT":"0.0000000000000","GP_ID":"211081133","TLE_LINE2":"2 52467  53.2152  93.6249 0001982  64.3852 326.7847 15.08848947  1300","MEAN_ANOMALY":"326.7847","SITE":"AFETR","FILE":"3548620","DECAY_DATE":null,"MEAN_ELEMENT_THEORY":"SGP4","TIME_SYSTEM":"UTC","PERIOD":"95.437","ELEMENT_SET_NO":"999","REF_FRAME":"TEME","MEAN_MOTION":"15.08848947","CLASSIFICATION_TYPE":"U","EPOCH":"2022-08-26T22:00:00.999936","CENTER_NAME":"EARTH","APOAPSIS":"541.089","ECCENTRICITY":"0.00019820","OBJECT_TYPE":"PAYLOAD"},{"TIME_SYSTEM":"UTC","ELEMENT_SET_NO":"999","PERIOD":"95.438","MEAN_ANOMALY":"50.3447","SITE":"AFETR","FILE":"3548620","DECAY_DATE":null,"MEAN_ELEMENT_THEORY":"SGP4","APOAPSIS":"541.232","CENTER_NAME":"EARTH","ECCENTRICITY":"0.00021350","OBJECT_TYPE":"PAYLOAD","REF_FRAME":"TEME","MEAN_MOTION":"15.08836880","EPOCH":"2022-08-26T22:00:00.999936","CLASSIFICATION_TYPE":"U","LAUNCH_DATE":"2022-05-06","BSTAR":"-0.00029345000000","TLE_LINE1":"1 52468U 22049T   22238.91667824 -.00004955  00000-0 -29345-3 0  9993","COUNTRY_CODE":"US","ARG_OF_PERICENTER":"60.8349","REV_AT_EPOCH":"130","PERIAPSIS":"538.278","OBJECT_ID":"2022-049T","RCS_SIZE":"LARGE","GP_ID":"211080432","EPHEMERIS_TYPE":"0","RA_OF_ASC_NODE":"93.6277","MEAN_MOTION_DDOT":"0.0000000000000","TLE_LINE2":"2 52468  53.2159  93.6277 0002135  60.8349  50.3447 15.08836880  1301","SEMIMAJOR_AXIS":"6917.890","MEAN_MOTION_DOT":"-0.00004955","OBJECT_NAME":"STARLINK-3864","INCLINATION":"53.2159","NORAD_CAT_ID":"52468"},{"SEMIMAJOR_AXIS":"6917.863","MEAN_MOTION_DOT":"-0.00005211","INCLINATION":"53.2154","OBJECT_NAME":"STARLINK-3828","NORAD_CAT_ID":"52469","GP_ID":"211080987","RA_OF_ASC_NODE":"93.6263","EPHEMERIS_TYPE":"0","MEAN_MOTION_DDOT":"0.0000000000000","TLE_LINE2":"2 52469  53.2154  93.6263 0001688  60.9647  10.2252 15.08845779  1302","PERIAPSIS":"538.560","OBJECT_ID":"2022-049U","REV_AT_EPOCH":"130","RCS_SIZE":"LARGE","LAUNCH_DATE":"2022-05-06","BSTAR":"-0.00030950000000","COUNTRY_CODE":"US","TLE_LINE1":"1 52469U 22049R   22238.91667824 -.00005211  00000-0 -30950-3 0  9994","ARG_OF_PERICENTER":"60.9647","MEAN_MOTION":"15.08845779","REF_FRAME":"TEME","EPOCH":"2022-08-26T22:00:00.999936","CLASSIFICATION_TYPE":"U","APOAPSIS":"540.895","CENTER_NAME":"EARTH","OBJECT_TYPE":"PAYLOAD","ECCENTRICITY":"0.00016880","MEAN_ANOMALY":"10.2252","FILE":"3548620","SITE":"AFETR","DECAY_DATE":null,"MEAN_ELEMENT_THEORY":"SGP4","TIME_SYSTEM":"UTC","ELEMENT_SET_NO":"999","PERIOD":"95.437"},{"REF_FRAME":"TEME","MEAN_MOTION":"15.08825284","CLASSIFICATION_TYPE":"U","EPOCH":"2022-08-26T22:00:00.999936","CENTER_NAME":"EARTH","APOAPSIS":"540.984","OBJECT_TYPE":"PAYLOAD","ECCENTRICITY":"0.00017260","FILE":"3548620","DECAY_DATE":null,"SITE":"AFETR","MEAN_ANOMALY":"90.8231","MEAN_ELEMENT_THEORY":"SGP4","TIME_SYSTEM":"UTC","PERIOD":"95.438","ELEMENT_SET_NO":"999","INCLINATION":"53.2170","OBJECT_NAME":"STARLINK-3859","MEAN_MOTION_DOT":"-0.00001682","SEMIMAJOR_AXIS":"6917.925","NORAD_CAT_ID":"52470","MEAN_MOTION_DDOT":"0.0000000000000","RA_OF_ASC_NODE":"93.6229","EPHEMERIS_TYPE":"0","GP_ID":"211080704","TLE_LINE2":"2 52470  53.2170  93.6229 0001726  60.3532  90.8231 15.08825284  1304","RCS_SIZE":"LARGE","PERIAPSIS":"538.596","OBJECT_ID":"2022-049V","REV_AT_EPOCH":"130","BSTAR":"-0.00008766100000","LAUNCH_DATE":"2022-05-06","ARG_OF_PERICENTER":"60.3532","COUNTRY_CODE":"US","TLE_LINE1":"1 52470U 22049V   22238.91667824 -.00001682  00000-0 -87661-4 0  9996"},{"TIME_SYSTEM":"UTC","ELEMENT_SET_NO":"999","PERIOD":"95.437","MEAN_ANOMALY":"22.9247","SITE":"AFETR","FILE":"3548620","DECAY_DATE":null,"MEAN_ELEMENT_THEORY":"SGP4","APOAPSIS":"541.072","CENTER_NAME":"EARTH","ECCENTRICITY":"0.00019490","OBJECT_TYPE":"PAYLOAD","MEAN_MOTION":"15.08847231","REF_FRAME":"TEME","EPOCH":"2022-08-26T22:00:00.999936","CLASSIFICATION_TYPE":"U","LAUNCH_DATE":"2022-05-06","BSTAR":"-0.00029492000000","TLE_LINE1":"1 52471U 22049W   22238.91667824 -.00004980  00000-0 -29492-3 0  9998","COUNTRY_CODE":"US","ARG_OF_PERICENTER":"68.2787","PERIAPSIS":"538.375","OBJECT_ID":"2022-049W","REV_AT_EPOCH":"130","RCS_SIZE":"LARGE","GP_ID":"211081297","RA_OF_ASC_NODE":"93.6267","EPHEMERIS_TYPE":"0","MEAN_MOTION_DDOT":"0.0000000000000","TLE_LINE2":"2 52471  53.2153  93.6267 0001949  68.2787  22.9247 15.08847231  1303","SEMIMAJOR_AXIS":"6917.858","MEAN_MOTION_DOT":"-0.00004980","INCLINATION":"53.2153","OBJECT_NAME":"STARLINK-3862","NORAD_CAT_ID":"52471"},{"FILE":"3548620","SITE":"AFETR","DECAY_DATE":null,"MEAN_ANOMALY":"109.7933","MEAN_ELEMENT_THEORY":"SGP4","TIME_SYSTEM":"UTC","ELEMENT_SET_NO":"999","PERIOD":"95.437","REF_FRAME":"TEME","MEAN_MOTION":"15.08842525","EPOCH":"2022-08-26T22:00:00.999936","CLASSIFICATION_TYPE":"U","APOAPSIS":"541.071","CENTER_NAME":"EARTH","OBJECT_TYPE":"PAYLOAD","ECCENTRICITY":"0.00019280","PERIAPSIS":"538.404","REV_AT_EPOCH":"130","OBJECT_ID":"2022-049X","RCS_SIZE":"LARGE","BSTAR":"0.00000521690000","LAUNCH_DATE":"2022-05-06","COUNTRY_CODE":"US","TLE_LINE1":"1 52472U 22049X   22238.91667824 -.00000205  00000-0  52169-5 0  9993","ARG_OF_PERICENTER":"61.4111","MEAN_MOTION_DOT":"-0.00000205","SEMIMAJOR_AXIS":"6917.873","INCLINATION":"53.2173","OBJECT_NAME":"STARLINK-3881","NORAD_CAT_ID":"52472","GP_ID":"211080849","MEAN_MOTION_DDOT":"0.0000000000000","RA_OF_ASC_NODE":"93.6179","EPHEMERIS_TYPE":"0","TLE_LINE2":"2 52472  53.2173  93.6179 0001928  61.4111 109.7933 15.08842525  1308"},{"NORAD_CAT_ID":"52473","INCLINATION":"53.2167","OBJECT_NAME":"STARLINK-3879","SEMIMAJOR_AXIS":"6917.885","MEAN_MOTION_DOT":"-0.00003931","TLE_LINE2":"2 52473  53.2167  93.6302 0001978  64.7880  66.3772 15.08838398  1306","RA_OF_ASC_NODE":"93.6302","EPHEMERIS_TYPE":"0","MEAN_MOTION_DDOT":"0.0000000000000","GP_ID":"211080570","RCS_SIZE":"LARGE","PERIAPSIS":"538.382","REV_AT_EPOCH":"130","OBJECT_ID":"2022-049Y","ARG_OF_PERICENTER":"64.7880","COUNTRY_CODE":"US","TLE_LINE1":"1 52473U 22049Y   22238.91667824 -.00003931  00000-0 -22904-3 0  9996","LAUNCH_DATE":"2022-05-06","BSTAR":"-0.00022904000000","CLASSIFICATION_TYPE":"U","EPOCH":"2022-08-26T22:00:00.999936","MEAN_MOTION":"15.08838398","REF_FRAME":"TEME","ECCENTRICITY":"0.00019780","OBJECT_TYPE":"PAYLOAD","CENTER_NAME":"EARTH","APOAPSIS":"541.119","MEAN_ELEMENT_THEORY":"SGP4","MEAN_ANOMALY":"66.3772","SITE":"AFETR","FILE":"3548620","DECAY_DATE":null,"PERIOD":"95.438","ELEMENT_SET_NO":"999","TIME_SYSTEM":"UTC"}];
